ALOS (DAICHI)           
1 28931U 06002A   26057.47432450  .00001372  00000+0  23836-3 0  9997
2 28931  98.1198  13.4878 0001416  53.2502 306.8834 14.69766703 71831
H-2A R/B                
1 28932U 06002B   26057.39048231  .00009029  00000+0  45633-3 0  9995
2 28932  98.2384 203.4467 0051931 279.9997  79.5375 15.16144065 92726
RESURS-DK 1             
1 29228U 06021A   26057.49245026  .00002261  00000+0  13512-3 0  9999
2 29228  69.9311 265.9890 0002755 169.9578 190.1643 15.12662443 85839
CZ-4B R/B               
1 29507U 06046C   26057.39456037  .00005194  00000+0  26477-3 0  9993
2 29507  97.5626 102.3338 0031975 308.4374  51.3990 15.16768553 58337
CZ-2C R/B               
1 31114U 07010B   26057.24250805  .00000106  00000+0  67989-4 0  9993
2 31114  98.3974 171.0954 0058298 328.4198  31.3485 14.20241578978097
COSMO-SKYMED 1          
1 31598U 07023A   26057.56494028  .00002606  00000+0  23503-3 0  9995
2 31598  97.8878 248.5086 0001162  81.3923 278.7430 14.96438451 13240
COSMOS 2428             
1 31792U 07029A   26057.49068489  .00000152  00000+0  10730-3 0  9999
2 31792  70.9409 226.8497 0008460 289.0800  70.9405 14.12942831962519
SL-16 R/B               
1 31793U 07029B   26057.53608401 -.00000226  00000+0 -92376-4 0  9990
2 31793  70.9755 195.8282 0002473 280.1276 149.7249 14.14835261963790
KORONAS-FOTON           
1 33504U 09003A   26057.35173852  .00012756  00000+0  28801-3 0  9993
2 33504  82.4296 287.6635 0010228 189.1102 170.9961 15.43006553943999
CZ-2C R/B               
1 37731U 11030B   26057.47518493  .00001651  00000+0  21402-3 0  9991
2 37731  97.8523  14.9650 0053466  28.3468  84.5684 14.81169464788436
