CCSDS_OMM_VERS = 2.0
CREATION_DATE  = 
ORIGINATOR     = 

OBJECT_NAME    = ALOS (DAICHI)
OBJECT_ID      = 2006-002A
CENTER_NAME    = EARTH
REF_FRAME      = TEME
TIME_SYSTEM    = UTC
MEAN_ELEMENT_THEORY = SGP/SGP4

EPOCH          = 2026-02-26T11:23:01.636800
MEAN_MOTION    = 14.69766703
ECCENTRICITY   = .00014168
INCLINATION    = 98.1198
RA_OF_ASC_NODE = 13.4878
ARG_OF_PERICENTER = 53.2502
MEAN_ANOMALY   = 306.8834

EPHEMERIS_TYPE = 0
CLASSIFICATION_TYPE = U
NORAD_CAT_ID   = 28931
ELEMENT_SET_NO = 999
REV_AT_EPOCH   = 7183
BSTAR          = .23835926E-3
MEAN_MOTION_DOT = .1372E-4
MEAN_MOTION_DDOT = 0

CCSDS_OMM_VERS = 2.0
CREATION_DATE  = 
ORIGINATOR     = 

OBJECT_NAME    = H-2A R/B
OBJECT_ID      = 2006-002B
CENTER_NAME    = EARTH
REF_FRAME      = TEME
TIME_SYSTEM    = UTC
MEAN_ELEMENT_THEORY = SGP/SGP4

EPOCH          = 2026-02-26T09:22:17.671584
MEAN_MOTION    = 15.16144065
ECCENTRICITY   = .00519318
INCLINATION    = 98.2384
RA_OF_ASC_NODE = 203.4467
ARG_OF_PERICENTER = 279.9997
MEAN_ANOMALY   = 79.5375

EPHEMERIS_TYPE = 0
CLASSIFICATION_TYPE = U
NORAD_CAT_ID   = 28932
ELEMENT_SET_NO = 999
REV_AT_EPOCH   = 9272
BSTAR          = .45632635E-3
MEAN_MOTION_DOT = .9029E-4
MEAN_MOTION_DDOT = 0

CCSDS_OMM_VERS = 2.0
CREATION_DATE  = 
ORIGINATOR     = 

OBJECT_NAME    = RESURS-DK 1
OBJECT_ID      = 2006-021A
CENTER_NAME    = EARTH
REF_FRAME      = TEME
TIME_SYSTEM    = UTC
MEAN_ELEMENT_THEORY = SGP/SGP4

EPOCH          = 2026-02-26T11:49:07.702464
MEAN_MOTION    = 15.12662443
ECCENTRICITY   = .00027552
INCLINATION    = 69.9311
RA_OF_ASC_NODE = 265.9890
ARG_OF_PERICENTER = 169.9578
MEAN_ANOMALY   = 190.1643

EPHEMERIS_TYPE = 0
CLASSIFICATION_TYPE = U
NORAD_CAT_ID   = 29228
ELEMENT_SET_NO = 999
REV_AT_EPOCH   = 8583
BSTAR          = .13512172E-3
MEAN_MOTION_DOT = .2261E-4
MEAN_MOTION_DDOT = 0

CCSDS_OMM_VERS = 2.0
CREATION_DATE  = 
ORIGINATOR     = 

OBJECT_NAME    = CZ-4B R/B
OBJECT_ID      = 2006-046C
CENTER_NAME    = EARTH
REF_FRAME      = TEME
TIME_SYSTEM    = UTC
MEAN_ELEMENT_THEORY = SGP/SGP4

EPOCH          = 2026-02-26T09:28:10.015968
MEAN_MOTION    = 15.16768553
ECCENTRICITY   = .00319751
INCLINATION    = 97.5626
RA_OF_ASC_NODE = 102.3338
ARG_OF_PERICENTER = 308.4374
MEAN_ANOMALY   = 51.3990

EPHEMERIS_TYPE = 0
CLASSIFICATION_TYPE = U
NORAD_CAT_ID   = 29507
ELEMENT_SET_NO = 999
REV_AT_EPOCH   = 5833
BSTAR          = .26476593E-3
MEAN_MOTION_DOT = .5194E-4
MEAN_MOTION_DDOT = 0

CCSDS_OMM_VERS = 2.0
CREATION_DATE  = 
ORIGINATOR     = 

OBJECT_NAME    = CZ-2C R/B
OBJECT_ID      = 2007-010B
CENTER_NAME    = EARTH
REF_FRAME      = TEME
TIME_SYSTEM    = UTC
MEAN_ELEMENT_THEORY = SGP/SGP4

EPOCH          = 2026-02-26T05:49:12.695520
MEAN_MOTION    = 14.20241578
ECCENTRICITY   = .0058298
INCLINATION    = 98.3974
RA_OF_ASC_NODE = 171.0954
ARG_OF_PERICENTER = 328.4198
MEAN_ANOMALY   = 31.3485

EPHEMERIS_TYPE = 0
CLASSIFICATION_TYPE = U
NORAD_CAT_ID   = 31114
ELEMENT_SET_NO = 999
REV_AT_EPOCH   = 97809
BSTAR          = .67988536E-4
MEAN_MOTION_DOT = .106E-5
MEAN_MOTION_DDOT = 0

CCSDS_OMM_VERS = 2.0
CREATION_DATE  = 
ORIGINATOR     = 

OBJECT_NAME    = COSMO-SKYMED 1
OBJECT_ID      = 2007-023A
CENTER_NAME    = EARTH
REF_FRAME      = TEME
TIME_SYSTEM    = UTC
MEAN_ELEMENT_THEORY = SGP/SGP4

EPOCH          = 2026-02-26T13:33:30.840192
MEAN_MOTION    = 14.96438451
ECCENTRICITY   = .00011621
INCLINATION    = 97.8878
RA_OF_ASC_NODE = 248.5086
ARG_OF_PERICENTER = 81.3923
MEAN_ANOMALY   = 278.7430

EPHEMERIS_TYPE = 0
CLASSIFICATION_TYPE = U
NORAD_CAT_ID   = 31598
ELEMENT_SET_NO = 999
REV_AT_EPOCH   = 1324
BSTAR          = .23502515E-3
MEAN_MOTION_DOT = .2606E-4
MEAN_MOTION_DDOT = 0

CCSDS_OMM_VERS = 2.0
CREATION_DATE  = 
ORIGINATOR     = 

OBJECT_NAME    = COSMOS 2428
OBJECT_ID      = 2007-029A
CENTER_NAME    = EARTH
REF_FRAME      = TEME
TIME_SYSTEM    = UTC
MEAN_ELEMENT_THEORY = SGP/SGP4

EPOCH          = 2026-02-26T11:46:35.174496
MEAN_MOTION    = 14.12942831
ECCENTRICITY   = .00084603
INCLINATION    = 70.9409
RA_OF_ASC_NODE = 226.8497
ARG_OF_PERICENTER = 289.0800
MEAN_ANOMALY   = 70.9405

EPHEMERIS_TYPE = 0
CLASSIFICATION_TYPE = U
NORAD_CAT_ID   = 31792
ELEMENT_SET_NO = 999
REV_AT_EPOCH   = 96251
BSTAR          = .10730321E-3
MEAN_MOTION_DOT = .152E-5
MEAN_MOTION_DDOT = 0

CCSDS_OMM_VERS = 2.0
CREATION_DATE  = 
ORIGINATOR     = 

OBJECT_NAME    = SL-16 R/B
OBJECT_ID      = 2007-029B
CENTER_NAME    = EARTH
REF_FRAME      = TEME
TIME_SYSTEM    = UTC
MEAN_ELEMENT_THEORY = SGP/SGP4

EPOCH          = 2026-02-26T12:51:57.658464
MEAN_MOTION    = 14.14835261
ECCENTRICITY   = .00024732
INCLINATION    = 70.9755
RA_OF_ASC_NODE = 195.8282
ARG_OF_PERICENTER = 280.1276
MEAN_ANOMALY   = 149.7249

EPHEMERIS_TYPE = 0
CLASSIFICATION_TYPE = U
NORAD_CAT_ID   = 31793
ELEMENT_SET_NO = 999
REV_AT_EPOCH   = 96379
BSTAR          = -.9237615E-4
MEAN_MOTION_DOT = -.226E-5
MEAN_MOTION_DDOT = 0

CCSDS_OMM_VERS = 2.0
CREATION_DATE  = 
ORIGINATOR     = 

OBJECT_NAME    = KORONAS-FOTON
OBJECT_ID      = 2009-003A
CENTER_NAME    = EARTH
REF_FRAME      = TEME
TIME_SYSTEM    = UTC
MEAN_ELEMENT_THEORY = SGP/SGP4

EPOCH          = 2026-02-26T08:26:30.208128
MEAN_MOTION    = 15.43006553
ECCENTRICITY   = .0010228
INCLINATION    = 82.4296
RA_OF_ASC_NODE = 287.6635
ARG_OF_PERICENTER = 189.1102
MEAN_ANOMALY   = 170.9961

EPHEMERIS_TYPE = 0
CLASSIFICATION_TYPE = U
NORAD_CAT_ID   = 33504
ELEMENT_SET_NO = 999
REV_AT_EPOCH   = 94399
BSTAR          = .28801E-3
MEAN_MOTION_DOT = .12756E-3
MEAN_MOTION_DDOT = 0

CCSDS_OMM_VERS = 2.0
CREATION_DATE  = 
ORIGINATOR     = 

OBJECT_NAME    = CZ-2C R/B
OBJECT_ID      = 2011-030B
CENTER_NAME    = EARTH
REF_FRAME      = TEME
TIME_SYSTEM    = UTC
MEAN_ELEMENT_THEORY = SGP/SGP4

EPOCH          = 2026-02-26T11:24:15.977952
MEAN_MOTION    = 14.81169464
ECCENTRICITY   = .0053466
INCLINATION    = 97.8523
RA_OF_ASC_NODE = 14.9650
ARG_OF_PERICENTER = 28.3468
MEAN_ANOMALY   = 84.5684

EPHEMERIS_TYPE = 0
CLASSIFICATION_TYPE = U
NORAD_CAT_ID   = 37731
ELEMENT_SET_NO = 999
REV_AT_EPOCH   = 78843
BSTAR          = .21402E-3
MEAN_MOTION_DOT = .1651E-4
MEAN_MOTION_DDOT = 0

